OBJECT_NAME,OBJECT_ID,EPOCH,MEAN_MOTION,ECCENTRICITY,INCLINATION,RA_OF_ASC_NODE,ARG_OF_PERICENTER,MEAN_ANOMALY,EPHEMERIS_TYPE,CLASSIFICATION_TYPE,NORAD_CAT_ID,ELEMENT_SET_NO,REV_AT_EPOCH,BSTAR,MEAN_MOTION_DOT,MEAN_MOTION_DDOT
STARLINK-35964,2025-278F,2026-03-01T07:05:38.180256,15.27596723,.000107,43.0010,146.8699,259.4732,100.5999,0,U,66796,999,1409,.8661E-3,.2366E-3,0
STARLINK-36099,2025-278G,2026-03-01T06:50:11.578272,15.27610419,.0000454,42.9985,161.8360,305.8554,54.2255,0,U,66797,999,1392,.16074E-2,.44278E-3,0
STARLINK-36041,2025-278H,2026-03-01T07:16:05.496960,15.27594110,.0000765,42.9946,161.9688,277.9575,82.1189,0,U,66798,999,1392,.137E-2,.37645E-3,0
STARLINK-36044,2025-278J,2026-03-01T07:54:44.358912,15.27605186,.0001582,43.0015,161.3043,175.2537,184.8330,0,U,66799,999,1393,.12618E-2,.34651E-3,0
STARLINK-35996,2025-278K,2026-03-01T07:47:20.416704,15.27610403,.0001169,43.0029,161.2694,244.2323,115.8408,0,U,66800,999,1393,.1081E-2,.29631E-3,0
STARLINK-36080,2025-278L,2026-03-01T07:32:45.151008,15.27597405,.0001709,43.0010,162.0639,279.2265,80.8393,0,U,66801,999,1392,.13397E-2,.36809E-3,0
STARLINK-35604,2025-278M,2026-03-01T07:08:41.691264,15.27595232,.0000858,42.9976,161.9287,262.2992,97.7762,0,U,66802,999,1392,.10222E-2,.27986E-3,0
STARLINK-35565,2025-278N,2026-03-01T07:17:56.825088,15.27600821,.0002732,42.9986,161.9845,290.3147,69.7411,0,U,66803,999,1392,.14049E-2,.38626E-3,0
STARLINK-36038,2025-278P,2026-03-01T08:03:59.650848,15.27605199,.0001499,43.0015,161.3611,270.3505,89.7174,0,U,66804,999,1393,.91925E-3,.25139E-3,0
STARLINK-36049,2025-278Q,2026-03-01T07:21:39.375072,15.27587715,.0000466,43.0003,162.0033,257.5747,102.5052,0,U,66805,999,1392,.11753E-2,.32228E-3,0
STARLINK-36069,2025-278R,2026-03-01T07:27:12.566304,15.27602944,.0000985,42.9988,162.0328,282.0047,78.0695,0,U,66806,999,1392,.10974E-2,.30081E-3,0
STARLINK-36000,2025-278S,2026-03-01T08:09:32.584608,15.27609297,.0001844,43.0030,161.3874,290.5581,69.5073,0,U,66807,999,1393,.15417E-2,.42446E-3,0
STARLINK-36071,2025-278T,2026-03-01T07:38:05.071200,15.27604600,.0002765,43.0009,161.2243,288.7491,71.3060,0,U,66808,999,1393,.15077E-2,.41494E-3,0
STARLINK-35979,2025-278U,2026-03-01T07:29:02.962176,15.27598201,.0003155,42.9996,162.0374,292.7771,67.2747,0,U,66809,999,1392,.14893E-2,.40974E-3,0
STARLINK-36046,2025-278V,2026-03-01T08:40:59.969280,15.27598189,.00012,42.9982,161.5511,262.8769,97.1947,0,U,66810,999,1393,.10136E-2,.27751E-3,0
STARLINK-36045,2025-278W,2026-03-01T08:29:53.298240,15.27609009,.0001267,42.9995,161.4922,250.5335,109.5380,0,U,66811,999,1393,.1331E-2,.36579E-3,0
STARLINK-36054,2025-278X,2026-02-28T13:36:19.036800,15.27600042,.00015897,43.0017,165.9048,277.4633,82.6038,0,U,66812,999,1381,.80251197E-3,.219E-3,0
STARLINK-36042,2025-278Y,2026-03-01T07:49:11.407008,15.27596407,.0001419,43.0023,161.2751,280.2075,79.8617,0,U,66813,999,1393,.8779E-3,.23987E-3,0
STARLINK-35984,2025-278Z,2026-03-01T07:52:52.343040,15.27609000,.0003714,43.0000,161.2939,146.2395,213.8693,0,U,66814,999,1393,.11562E-2,.31724E-3,0
STARLINK-35985,2025-278AA,2026-03-01T08:20:38.562720,15.27596690,.0001467,42.9998,161.4358,272.8941,87.1743,0,U,66815,999,1514,.99704E-3,.2729E-3,0
STARLINK-36098,2025-278AB,2026-03-01T07:39:56.144448,15.27599175,.0002039,42.9984,161.2270,290.4269,69.6364,0,U,66816,999,1393,.13186E-2,.36222E-3,0
STARLINK-35995,2025-278AC,2026-03-01T08:15:05.736096,15.27598209,.0001685,43.0010,161.4103,273.7475,86.3184,0,U,66817,999,1393,.11456E-2,.31414E-3,0
STARLINK-35994,2025-278AD,2026-03-01T06:44:38.611680,15.27605268,.0000388,43.0012,161.8043,235.3487,124.7328,0,U,66818,999,1392,.14299E-2,.39325E-3,0
STARLINK-35989,2025-278AE,2026-03-01T06:57:35.345088,15.27604274,.0000719,42.9979,161.8676,253.2116,106.8656,0,U,66819,999,1392,.15308E-2,.42134E-3,0
STARLINK-35966,2025-280A,2026-03-01T05:27:44.441280,14.98316081,.0002069,70.0039,355.9807,249.3683,110.7254,0,U,66821,999,1480,.82332E-3,.9741E-4,0
STARLINK-35958,2025-280B,2026-03-01T04:39:37.285056,14.98336285,.0002583,70.0026,355.8628,267.6591,92.4273,0,U,66822,999,1480,.41629E-3,.4878E-4,0
STARLINK-35957,2025-280C,2026-03-01T05:51:43.829856,14.98339519,.0002587,70.0025,355.6348,266.1633,93.9230,0,U,66823,999,1481,.92705E-3,.10988E-3,0
STARLINK-35896,2025-280D,2026-03-01T05:03:39.731328,14.98343263,.0002722,70.0030,355.9238,270.2077,89.8770,0,U,66824,999,1480,.63306E-3,.7471E-4,0
STARLINK-35476,2025-280E,2026-03-01T05:15:41.253408,14.98338680,.0002776,70.0024,355.9519,273.6640,86.4201,0,U,66825,999,1480,.43664E-3,.5122E-4,0
STARLINK-35898,2025-280F,2026-03-01T05:39:41.200992,14.98327340,.0002735,70.0025,355.6055,270.7438,89.3408,0,U,66826,999,1481,.21148E-3,.2431E-4,0
STARLINK-35959,2025-280G,2026-03-01T04:51:38.579040,14.98337556,.0002498,70.0030,355.8905,270.9606,89.1267,0,U,66827,999,1480,.65192E-3,.7696E-4,0
STARLINK-35982,2025-280H,2026-03-01T05:09:40.713984,14.98331790,.0002608,70.0026,355.9347,269.6730,90.4131,0,U,66828,999,1480,.44615E-3,.5235E-4,0
STARLINK-36084,2025-280J,2026-03-01T06:03:44.874144,14.98376066,.0003471,70.0041,355.6632,254.8158,105.2617,0,U,66829,999,1481,.20458E-2,.24432E-3,0
STARLINK-35881,2025-280K,2026-03-01T05:21:42.022656,14.98337953,.0002129,70.0025,355.9653,265.8094,94.2822,0,U,66830,999,1480,.87064E-3,.10312E-3,0
STARLINK-35788,2025-280L,2026-03-01T05:45:43.836480,14.98347083,.0002539,70.0028,355.6201,279.0016,81.0856,0,U,66831,999,1481,.17589E-2,.20966E-3,0
STARLINK-35768,2025-280M,2026-03-01T04:57:40.984704,14.98310756,.0002036,70.0046,355.9052,268.8541,91.2384,0,U,66832,999,1480,.65179E-3,.7689E-4,0
STARLINK-35858,2025-280N,2026-03-01T06:09:44.668800,14.98336597,.0002621,70.0028,355.6790,274.0790,86.0069,0,U,66833,999,1481,.27908E-3,.3239E-4,0
STARLINK-35840,2025-280P,2026-03-01T05:33:40.889664,14.98338725,.0002697,70.0024,355.5904,271.3050,88.7800,0,U,66834,999,1481,.53063E-3,.6245E-4,0
STARLINK-35890,2025-280Q,2026-03-01T06:21:45.960192,14.98361723,.000289,70.0029,355.7063,282.1479,77.9357,0,U,66835,999,1481,.84994E-3,.10071E-3,0
STARLINK-35838,2025-280R,2026-03-01T05:57:45.216864,14.98338766,.0002284,70.0040,355.6488,281.2404,78.8499,0,U,66836,999,1481,.1246E-2,.14809E-3,0
STARLINK-35729,2025-280S,2026-03-01T05:27:57.530880,14.98308061,.0002398,70.0036,355.9775,273.9179,86.1705,0,U,66837,999,1480,-.87366E-4,-.1134E-4,0
STARLINK-35886,2025-280T,2026-03-01T05:51:56.566944,14.98351167,.0002881,70.0025,355.6324,270.7464,89.3365,0,U,66838,999,1481,.76084E-3,.9002E-4,0
STARLINK-35717,2025-280U,2026-03-01T04:39:51.316416,14.98342138,.0002721,70.0030,355.8601,272.4293,87.6554,0,U,66839,999,1480,.62659E-3,.7394E-4,0
STARLINK-35837,2025-280V,2026-03-01T05:03:54.358848,14.98333297,.0002508,70.0026,355.9208,271.1068,88.9804,0,U,66840,999,1480,.55943E-3,.6589E-4,0
STARLINK-35715,2025-280W,2026-03-01T05:15:55.517184,14.98341530,.0002722,70.0023,355.9487,268.4464,91.6383,0,U,66841,999,1480,.64018E-3,.7556E-4,0
STARLINK-35769,2025-280X,2026-03-01T05:39:55.725696,14.98338297,.0002739,70.0028,355.6033,271.9708,88.1137,0,U,66842,999,1481,.50684E-3,.5961E-4,0
STARLINK-35997,2025-280Y,2026-03-01T06:03:58.131360,14.98340743,.0002452,70.0033,355.6618,270.8791,89.2087,0,U,66843,999,1481,.48184E-3,.5662E-4,0
STARLINK-36073,2025-280Z,2026-03-01T06:28:01.032096,14.98338854,.0002376,70.0029,355.7208,265.3978,94.6910,0,U,66844,999,1478,.75768E-3,.8961E-4,0
STARLINK-36068,2025-280AA,2026-03-01T05:45:56.165760,14.98333124,.0002899,70.0025,355.6169,268.2656,91.8171,0,U,66845,999,1481,.97936E-3,.11613E-3,0
STARLINK-36055,2025-280AB,2026-03-01T05:09:54.838656,14.98341607,.0002218,70.0025,355.9341,272.7555,87.3350,0,U,66846,999,1481,.84323E-3,.9985E-4,0
STARLINK-36061,2025-280AC,2026-03-01T05:21:56.111904,14.98338179,.0002665,70.0022,355.9611,270.2174,89.8680,0,U,66847,999,1480,.39911E-3,.4673E-4,0
STARLINK-36091,2025-281A,2026-03-01T07:59:55.497408,15.27595713,.000252,43.0030,31.0054,286.7039,73.3536,0,U,66848,999,1358,.10054E-2,.27523E-3,0
STARLINK-36102,2025-281B,2026-02-28T23:54:20.632896,15.27606670,.0001419,43.0027,32.7690,266.4326,93.6364,0,U,66849,999,1485,.15462E-2,.42566E-3,0
STARLINK-36105,2025-281C,2026-03-01T06:05:24.732672,15.27612025,.0001414,43.0025,31.2628,268.4034,91.6656,0,U,66850,999,1489,.11579E-2,.3177E-3,0
STARLINK-36094,2025-281D,2026-03-01T07:13:39.786816,15.27597904,.0001378,43.0020,30.7608,250.9204,109.1498,0,U,66851,999,1490,.98641E-3,.26996E-3,0
STARLINK-35992,2025-281E,2026-03-01T07:08:06.931680,15.27603520,.0001038,43.0025,30.7331,272.0585,88.0148,0,U,66852,999,1490,.92611E-3,.25328E-3,0
STARLINK-35986,2025-281F,2026-03-01T07:02:33.375840,15.27613678,.0002061,43.0029,30.7024,249.5627,110.5003,0,U,66853,999,1490,.13061E-2,.3589E-3,0
STARLINK-36087,2025-281G,2026-03-01T06:57:00.679680,15.27603878,.0001346,43.0040,30.6711,265.8621,94.2077,0,U,66854,999,1490,.13073E-2,.35912E-3,0
STARLINK-36090,2025-281H,2026-03-01T06:42:12.561120,15.27615939,.0000862,42.9979,30.5880,254.5816,105.4940,0,U,66855,999,1490,.1258E-2,.34556E-3,0
STARLINK-36072,2025-281J,2026-03-01T06:31:19.103232,15.27613985,.0001473,43.0013,31.3973,265.5992,94.4692,0,U,66856,999,1489,.16633E-2,.4584E-3,0
STARLINK-36083,2025-281K,2026-03-01T07:54:22.288896,15.27599593,.0001998,43.0030,30.9710,290.1522,69.9115,0,U,66857,999,1490,.1404E-2,.38598E-3,0
STARLINK-35118,2025-281L,2026-03-01T07:34:01.046496,15.27624619,.0001383,43.0047,30.8643,277.5569,82.5126,0,U,66858,999,1490,.15605E-2,.4299E-3,0
STARLINK-35646,2025-281M,2026-03-01T05:54:18.702720,15.27587102,.0001486,43.0042,31.2031,265.9514,94.1168,0,U,66859,999,1489,.15285E-2,.42048E-3,0
STARLINK-35987,2025-281N,2026-03-01T07:04:23.568672,15.27611556,.0001253,43.0025,30.7093,278.2925,81.7785,0,U,66860,999,1490,.90494E-3,.24747E-3,0
STARLINK-35991,2025-281P,2026-03-01T06:51:27.467712,15.27584089,.000201,43.0039,30.6375,264.1544,95.9078,0,U,66861,999,1490,.89126E-3,.24348E-3,0
STARLINK-35974,2025-281Q,2026-03-01T05:48:45.819072,15.27594212,.0001704,43.0031,31.1777,271.8166,88.2490,0,U,66862,999,1489,.14401E-2,.39598E-3,0
